[{"OBJECT_NAME":"SMOS","OBJECT_ID":"2009-059A","EPOCH":"2026-03-09T12:46:15.832416","MEAN_MOTION":14.39760281,"ECCENTRICITY":9.828e-5,"INCLINATION":98.4428,"RA_OF_ASC_NODE":257.3122,"ARG_OF_PERICENTER":82.3973,"MEAN_ANOMALY":277.7326,"EPHEMERIS_TYPE":0,"CLASSIFICATION_TYPE":"U","NORAD_CAT_ID":36036,"ELEMENT_SET_NO":999,"REV_AT_EPOCH":85911,"BSTAR":0.00013788061,"MEAN_MOTION_DOT":3.89e-6,"MEAN_MOTION_DDOT":0},{"OBJECT_NAME":"COSMOS 2251 DEB","OBJECT_ID":"1993-036AEW","EPOCH":"2026-02-26T10:34:30.069984","MEAN_MOTION":14.44660564,"ECCENTRICITY":0.0041714,"INCLINATION":73.9926,"RA_OF_ASC_NODE":112.6011,"ARG_OF_PERICENTER":244.3813,"MEAN_ANOMALY":115.3031,"EPHEMERIS_TYPE":0,"CLASSIFICATION_TYPE":"U","NORAD_CAT_ID":34967,"ELEMENT_SET_NO":999,"REV_AT_EPOCH":66050,"BSTAR":0.0005005,"MEAN_MOTION_DOT":1.725e-5,"MEAN_MOTION_DDOT":0}]
